[Satellite]
VERSION=1.1
NAME=DIAMOND BLUE
NICKNAME=DIAMOND BLUE
TLE1=1 42786U 17036X   18020.73713506  .00001063  00000-0  50831-4 0  9998
TLE2=2 42786  97.4226  82.7745 0011084 228.8464 131.1816 15.21135276 32166
